ESEO                    
1 43792U 18099AL  26068.65529582  .00002831  00000+0  20935-3 0  9991
2 43792  97.4113 110.2601 0011063 317.6000  42.4371 15.03914518396849
STARLINK-34578          
1 64856U 25152Q   26068.56522198  .00004229  00000+0  29715-3 0  9997
2 64856  97.6015 285.4697 0001825  80.5140 279.6292 15.05648965 35402
